NORAD_CAT_ID,OBJECT_NAME,OBJECT_TYPE,EPOCH,MEAN_MOTION,ECCENTRICITY,INCLINATION,RA_OF_ASC_NODE,ARG_OF_PERICENTER,MEAN_ANOMALY,BSTAR,MEAN_MOTION_DOT,MEAN_MOTION_DDOT,TLE_LINE0,TLE_LINE1,TLE_LINE2,SEMIMAJOR_AXIS,PERIOD,APOGEE,PERIGEE,DECAYED
50206.0,STARLINK-3258,PAYLOAD,2022-10-19 18:23:00,15.08842478,0.0002466,53.2193,31.8979,31.6843,328.4297,7.0368e-05,8.32e-06,0.0,0 STARLINK-3258,1 50206U 21125BC  22292.76598261  .00000832  00000-0  70368-4 0  9996,2 50206  53.2193  31.8979 0002466  31.6843 328.4297 15.08842478 47922,6917.873000000001,95.437,541.444,538.0319999999998,0.0
50206.0,STARLINK-3258,PAYLOAD,2022-10-20 13:27:38,15.08840194,0.0002469,53.2192,28.3296,26.8725,333.2395,0.00013366,1.84e-05,0.0,0 STARLINK-3258,1 50206U 21125BC  22293.56086185  .00001840  00000-0  13366-3 0  9996,2 50206  53.2192  28.3296 0002469  26.8725 333.2395 15.08840194 48042,6917.88,95.438,541.453,538.0369999999998,0.0
50206.0,STARLINK-3258,PAYLOAD,2022-10-21 10:07:39,15.08842702,0.0002496,53.2194,24.4645,27.3646,332.7477,9.4542e-05,1.217e-05,0.0,0 STARLINK-3258,1 50206U 21125BC  22294.42198068  .00001217  00000-0  94542-4 0  9990,2 50206  53.2194  24.4645 0002496  27.3646 332.7477 15.08842702 48173,6917.871999999999,95.437,541.464,538.01,0.0
50206.0,STARLINK-3258,PAYLOAD,2022-10-21 14:53:48,15.0883917,0.0002501999999999,53.2194,23.5723,27.654,332.4584,6.1961e-05,6.98e-06,0.0,0 STARLINK-3258,1 50206U 21125BC  22294.62070362  .00000698  00000-0  61961-4 0  9999,2 50206  53.2194  23.5723 0002502  27.6540 332.4584 15.08839170 48209,6917.8830000000025,95.438,541.479,538.0169999999998,0.0
50206.0,STARLINK-3258,PAYLOAD,2022-10-22 13:09:12,15.08837485,0.0002651,53.2191,19.4091,24.9275,335.1844,8.2904e-06,-1.57e-06,0.0,0 STARLINK-3258,1 50206U 21125BC  22295.54806676 -.00000157  00000-0  82904-5 0  9998,2 50206  53.2191  19.4091 0002651  24.9275 335.1844 15.08837485 48349,6917.888000000001,95.438,541.587,537.919,0.0
50206.0,STARLINK-3258,PAYLOAD,2022-10-22 17:55:22,15.08841285,0.0002672,53.2191,18.517,25.1405,334.9717,4.9599e-05,5.01e-06,0.0,0 STARLINK-3258,1 50206U 21125BC  22295.74678332  .00000501  00000-0  49599-4 0  9990,2 50206  53.2191  18.5170 0002672  25.1405 334.9717 15.08841285 48370,6917.876,95.437,541.59,537.893,0.0
50206.0,STARLINK-3258,PAYLOAD,2022-10-23 11:24:35,15.08846656,0.000258,53.2191,15.2466,25.832,334.2801,8.982200000000001e-05,1.142e-05,0.0,0 STARLINK-3258,1 50206U 21125BC  22296.47541604  .00001142  00000-0  89822-4 0  9997,2 50206  53.2191  15.2466 0002580  25.8320 334.2801 15.08846656 48489,6917.86,95.437,541.51,537.94,0.0
50206.0,STARLINK-3258,PAYLOAD,2022-10-23 16:10:45,15.0885062,0.0002612,53.2192,14.3542,25.7006,334.4116,0.00010764,1.426e-05,0.0,0 STARLINK-3258,1 50206U 21125BC  22296.67413251  .00001426  00000-0  10764-3 0  9998,2 50206  53.2192  14.3542 0002612  25.7006 334.4116 15.08850620 48512,6917.848000000001,95.437,541.52,537.906,0.0
50206.0,STARLINK-3258,PAYLOAD,2022-10-24 11:15:23,15.08829716,0.0002622,53.2208,10.7897,19.1949,340.9142,-5.570399999999998e-06,-3.77e-06,0.0,0 STARLINK-3258,1 50206U 21125BC  22297.46902664 -.00000377  00000-0 -55704-5 0  9998,2 50206  53.2208  10.7897 0002622  19.1949 340.9142 15.08829716 48633,6917.9119999999975,95.438,541.591,537.9630000000002,0.0
50206.0,STARLINK-3258,PAYLOAD,2022-10-24 11:15:24,15.08826858,0.000261,53.2192,10.7859,22.8295,337.2812,-3.123e-05,-7.85e-06,0.0,0 STARLINK-3258,1 50206U 21125BC  22297.46902922 -.00000785  00000-0 -31230-4 0  9995,2 50206  53.2192  10.7859 0002610  22.8295 337.2812 15.08826858 48632,6917.920999999999,95.438,541.591,537.98,0.0
50206.0,STARLINK-3258,PAYLOAD,2022-10-24 14:26:10,15.08824479,0.0002565,53.2192,10.1914,23.8078,336.3033,-7.0794e-05,-1.415e-05,0.0,0 STARLINK-3258,1 50206U 21125BC  22297.60151231 -.00001415  00000-0 -70794-4 0  9999,2 50206  53.2192  10.1914 0002565  23.8078 336.3033 15.08824479 48651,6917.928000000001,95.439,541.567,538.018,0.0
50206.0,STARLINK-3258,PAYLOAD,2022-10-25 11:06:11,15.08832763,0.0002611,53.2195,6.3256,26.748,333.3646,-2.7712e-05,-7.29e-06,0.0,0 STARLINK-3258,1 50206U 21125BC  22298.46263201 -.00000729  00000-0 -27712-4 0  9994,2 50206  53.2195   6.3256 0002611  26.7480 333.3646 15.08832763 48787,6917.903,95.438,541.5740000000002,537.961,0.0
50206.0,STARLINK-3258,PAYLOAD,2022-10-25 14:16:57,15.08833126,0.0002648999999999,53.2187,5.7311,26.3196,333.793,-2.558e-06,-3.29e-06,0.0,0 STARLINK-3258,1 50206U 21125BC  22298.59510901 -.00000329  00000-0 -25580-5 0  9998,2 50206  53.2187   5.7311 0002649  26.3196 333.7930 15.08833126 48801,6917.901,95.438,541.599,537.934,0.0
50206.0,STARLINK-3258,PAYLOAD,2022-10-26 10:56:58,15.08834426,0.0002807,53.2186,1.866,29.0939,331.0209,0.00073742,0.00011466,0.0,0 STARLINK-3258,1 50206U 21125BC  22299.45623608  .00011466  00000-0  73742-3 0  9996,2 50206  53.2186   1.8660 0002807  29.0939 331.0209 15.08834426 48933,6917.897,95.438,541.7040000000002,537.821,0.0
50206.0,STARLINK-3258,PAYLOAD,2022-10-26 14:07:46,15.088262099999998,0.0003173,53.2184,1.2714,30.8196,329.2981,0.0016829999999999,0.0002658999999999,0.0,0 STARLINK-3258,1 50206U 21125BC  22299.58872837  .00026590  00000-0  16830-2 0  9998,2 50206  53.2184   1.2714 0003173  30.8196 329.2981 15.08826210 48957,6917.9230000000025,95.438,541.9830000000002,537.592,0.0
50206.0,STARLINK-3258,PAYLOAD,2022-10-27 04:26:12,15.08851016,0.000292,53.2183,358.5954,29.8724,330.2434,0.00035257,5.329e-05,0.0,0 STARLINK-3258,1 50206U 21125BC  22300.18486898  .00005329  00000-0  35257-3 0  9997,2 50206  53.2183 358.5954 0002920  29.8724 330.2434 15.08851016 49042,6917.847,95.437,541.732,537.692,0.0
50206.0,STARLINK-3258,PAYLOAD,2022-10-27 12:23:08,15.08847735,0.000293,53.2182,357.108,26.535,333.5792,0.00011854,1.599e-05,0.0,0 STARLINK-3258,1 50206U 21125BC  22300.51606721  .00001599  00000-0  11854-3 0  9995,2 50206  53.2182 357.1080 0002930  26.5350 333.5792 15.08847735 49097,6917.857,95.437,541.749,537.695,0.0
50206.0,STARLINK-3258,PAYLOAD,2022-10-27 15:33:54,15.08849059,0.0002891,53.2181,356.5135,26.7886,333.3255,0.00017987,2.576e-05,0.0,0 STARLINK-3258,1 50206U 21125BC  22300.64854747  .00002576  00000-0  17987-3 0  9991,2 50206  53.2181 356.5135 0002891  26.7886 333.3255 15.08849059 49118,6917.853,95.437,541.7180000000002,537.7180000000002,0.0
50206.0,STARLINK-3258,PAYLOAD,2022-10-28 05:52:22,15.08860116,0.00029,53.218,353.8371,25.9459,334.1678,0.00067067,0.00010408,0.0,0 STARLINK-3258,1 50206U 21125BC  22301.24470117  .00010408  00000-0  67067-3 0  9990,2 50206  53.2180 353.8371 0002900  25.9459 334.1678 15.08860116 49202,6917.819,95.436,541.69,537.678,0.0
50206.0,STARLINK-3258,PAYLOAD,2022-10-28 10:38:31,15.08851132,0.000283,53.218,352.9456,25.8491,334.2642,0.00033943,5.12e-05,0.0,0 STARLINK-3258,1 50206U 21125BC  22301.44342098  .00005120  00000-0  33943-3 0  9999,2 50206  53.2180 352.9456 0002830  25.8491 334.2642 15.08851132 49236,6917.846,95.437,541.669,537.754,0.0
50206.0,STARLINK-3258,PAYLOAD,2022-10-28 15:24:40,15.08852609,0.0002908999999999,53.2179,352.0525,25.571,334.5426,0.00016575,2.351e-05,0.0,0 STARLINK-3258,1 50206U 21125BC  22301.64213924  .00002351  00000-0  16575-3 0  9991,2 50206  53.2179 352.0525 0002909  25.5710 334.5426 15.08852609 49266,6917.842,95.437,541.719,537.694,0.0
50206.0,STARLINK-3258,PAYLOAD,2022-10-28 20:10:50,15.08854315,0.0002935,53.218,351.1604,26.1522,333.9618,0.00017152,2.443e-05,0.0,0 STARLINK-3258,1 50206U 21125BC  22301.84085743  .00002443  00000-0  17152-3 0  9993,2 50206  53.2180 351.1604 0002935  26.1522 333.9618 15.08854315 49298,6917.837,95.437,541.732,537.6709999999998,0.0
50206.0,STARLINK-3258,PAYLOAD,2022-10-29 07:18:32,15.08845681,0.0002848,53.2179,349.079,25.5779,334.5354,-8.565299999999999e-06,-4.25e-06,0.0,0 STARLINK-3258,1 50206U 21125BC  22302.30453789 -.00000425  00000-0 -85653-5 0  9997,2 50206  53.2179 349.0790 0002848  25.5779 334.5354 15.08845681 49366,6917.863,95.437,541.698,537.758,0.0
50206.0,STARLINK-3258,PAYLOAD,2022-10-29 08:53:55,15.08842761,0.0002845,53.2179,348.7816,26.2101,333.9034,-6.9223e-05,-1.39e-05,0.0,0 STARLINK-3258,1 50206U 21125BC  22302.37077865 -.00001390  00000-0 -69223-4 0  9997,2 50206  53.2179 348.7816 0002845  26.2101 333.9034 15.08842761 49370,6917.871999999999,95.437,541.705,537.769,0.0
50206.0,STARLINK-3258,PAYLOAD,2022-10-29 13:40:04,15.08842394,0.0002895,53.2182,347.8896,25.9027,334.2109,-5.482600000000001e-05,-1.161e-05,0.0,0 STARLINK-3258,1 50206U 21125BC  22302.56949903 -.00001161  00000-0 -54826-4 0  9998,2 50206  53.2182 347.8896 0002895  25.9027 334.2109 15.08842394 49403,6917.873000000001,95.437,541.741,537.735,0.0
50206.0,STARLINK-3258,PAYLOAD,2022-10-30 10:20:05,15.08842908,0.0002768,53.2187,344.0249,26.0767,334.0364,6.372100000000001e-05,7.26e-06,0.0,0 STARLINK-3258,1 50206U 21125BC  22303.43061939  .00000726  00000-0  63721-4 0  9997,2 50206  53.2187 344.0249 0002768  26.0767 334.0364 15.08842908 49537,6917.871999999999,95.437,541.651,537.822,0.0
50206.0,STARLINK-3258,PAYLOAD,2022-10-30 19:52:24,15.08838747,0.0002996,53.2186,342.2399,23.7682,336.3448,7.9908e-07,-2.76e-06,0.0,0 STARLINK-3258,1 50206U 21125BC  22303.82806407 -.00000276  00000-0  79908-6 0  9994,2 50206  53.2186 342.2399 0002996  23.7682 336.3448 15.08838747 49595,6917.884,95.438,541.822,537.677,0.0
50206.0,STARLINK-3258,PAYLOAD,2022-10-31 11:46:16,15.08837323,0.0002846,53.2187,339.2658,22.3496,337.76199999999994,3.4933e-05,2.67e-06,0.0,0 STARLINK-3258,1 50206U 21125BC  22304.49046473  .00000267  00000-0  34933-4 0  9993,2 50206  53.2187 339.2658 0002846  22.3496 337.7620 15.08837323 49699,6917.889,95.438,541.722,537.785,0.0
50206.0,STARLINK-3258,PAYLOAD,2022-10-31 19:43:11,15.0884179,0.0002862,53.2187,337.779,22.7089,337.403,8.211799999999999e-05,1.019e-05,0.0,0 STARLINK-3258,1 50206U 21125BC  22304.82166116  .00001019  00000-0  82118-4 0  9991,2 50206  53.2187 337.7790 0002862  22.7089 337.4030 15.08841790 49740,6917.875,95.437,541.72,537.76,0.0
